IRIDIUM 39              
1 25042U 97069D   25082.57567931  .00002713  00000+0  70914-3 0  9990
2 25042  86.3875 247.8228 0016353 228.3534 131.6271 14.49025388436569
IRIDIUM 38              
1 25043U 97069E   25082.51367267  .00001551  00000+0  50682-3 0  9994
2 25043  86.3896 269.2110 0003273  55.8667 304.2841 14.37989244433642
IRIDIUM 42              
1 25077U 97077A   25082.55423265  .00001405  00000+0  47483-3 0  9998
2 25077  86.3901 275.2648 0002591  76.4222 283.7263 14.36234608428905
IRIDIUM 44              
1 25078U 97077B   25082.53129810  .00001694  00000+0  53074-3 0  9999
2 25078  86.3906 257.4049 0001368  29.2937 330.8338 14.40119396431371
IRIDIUM 45              
1 25104U 97082A   25082.50360488  .00037141  00000+0  14790-2 0  9997
2 25104  86.3546  89.3914 0122130 292.4344  66.3999 15.18360493439027
IRIDIUM 24              
1 25105U 97082B   25082.61411412  .00001397  00000+0  42026-3 0  9992
2 25105  86.3873 116.6117 0011605  12.6804 347.4686 14.41964412430884
IRIDIUM 51              
1 25262U 98018A   25082.57797113  .00048408  00000+0  13142-2 0  9996
2 25262  86.3822  98.0062 0098050 215.8555 143.6090 15.32582045433880
IRIDIUM 57              
1 25273U 98019B   25082.52440109  .00001373  00000+0  46800-3 0  9992
2 25273  86.4041 181.1216 0002153  92.8606 267.2837 14.35805203412492
